{"type": "FeatureCollection", "features": [{"type": "Feature", "properties": {"name": "Thành phố Hồ Chí Minh (ranh giới trước sáp nhập 1/7/2025)", "source": "geoBoundaries gbHumanitarian VNM ADM1 (commit 9469f09) — dữ liệu gốc: Government of Viet Nam, qua HDX/OCHA COD-AB", "source_url": "https://github.com/wmgeolab/geoBoundaries/raw/9469f09/releaseData/gbHumanitarian/VNM/ADM1/geoBoundaries-VNM-ADM1.geojson", "boundary_year": "2020", "license": "CC BY 3.0 IGO", "shapeID": "80891907B30341580753291", "downloaded": "2026-10-05", "processing": "Chỉ giữ feature \"Ho Chi Minh city\", làm tròn tọa độ 6 chữ số thập phân (~0,1 m)"}, "geometry": {"type": "Polygon", "coordinates": [[[106.356771, 10.991729], [106.356716, 10.991699], [106.362004, 10.98478], [106.362249, 10.98446], [106.363901, 10.982302], [106.364298, 10.981756], [106.367433, 10.977445], [106.371206, 10.972257], [106.372696, 10.970179], [106.373072, 10.969689], [106.373193, 10.969623], [106.373218, 10.969623], [106.373408, 10.969623], [106.377622, 10.970009], [106.386816, 10.971014], [106.391477, 10.971503], [106.392415, 10.971602], [106.3976, 10.972092], [106.402501, 10.972661], [106.410934, 10.973683], [106.41095, 10.973683], [106.41159, 10.973689], [106.412083, 10.973608], [106.41566, 10.97095], [106.419004, 10.968465], [106.419993, 10.9678], [106.422425, 10.965984], [106.422454, 10.965962], [106.425816, 10.963346], [106.426261, 10.96301], [106.429811, 10.960332], [106.433164, 10.957711], [106.433599, 10.957398], [106.436987, 10.954797], [106.439298, 10.953022], [106.440267, 10.952269], [106.443716, 10.949589], [106.443773, 10.949545], [106.447283, 10.946783], [106.450616, 10.944157], [106.453326, 10.942051], [106.453576, 10.941922], [106.456995, 10.940158], [106.459258, 10.939066], [106.464278, 10.936632], [106.467324, 10.935096], [106.471328, 10.933203], [106.474318, 10.931663], [106.479362, 10.929169], [106.483116, 10.927298], [106.486191, 10.925723], [106.487371, 10.925153], [106.488339, 10.924685], [106.489082, 10.924311], [106.492127, 10.922775], [106.496242, 10.920723], [106.500437, 10.918507], [106.503673, 10.916814], [106.503917, 10.916687], [106.505309, 10.915959], [106.511041, 10.912985], [106.515978, 10.910412], [106.519083, 10.90887], [106.519589, 10.908601], [106.525027, 10.905709], [106.52818, 10.904021], [106.530335, 10.902867], [106.533227, 10.9013], [106.532235, 10.897744], [106.532123, 10.897334], [106.532061, 10.897121], [106.530547, 10.892444], [106.52876, 10.886453], [106.527621, 10.882091], [106.526425, 10.877175], [106.525656, 10.873783], [106.534745, 10.871773], [106.529252, 10.850032], [106.523245, 10.826253], [106.514076, 10.789742], [106.505701, 10.793703], [106.50425, 10.788683], [106.500435, 10.785375], [106.49949, 10.78464], [106.497221, 10.782753], [106.496505, 10.782159], [106.494984, 10.780898], [106.492803, 10.779107], [106.490708, 10.777326], [106.490099, 10.776847], [106.489436, 10.776283], [106.488504, 10.775491], [106.486967, 10.774357], [106.482858, 10.77125], [106.479495, 10.768571], [106.477119, 10.766726], [106.47709, 10.766707], [106.476593, 10.766386], [106.474666, 10.764938], [106.472153, 10.763004], [106.471949, 10.76285], [106.463562, 10.756505], [106.4659, 10.753584], [106.467011, 10.752177], [106.469817, 10.748448], [106.472146, 10.745529], [106.47222, 10.745421], [106.472444, 10.745567], [106.472817, 10.745872], [106.4735, 10.746418], [106.473629, 10.746252], [106.473804, 10.74602], [106.474015, 10.745741], [106.476699, 10.742587], [106.477678, 10.741461], [106.479329, 10.739508], [106.480224, 10.738517], [106.480274, 10.738461], [106.480979, 10.737586], [106.482169, 10.736188], [106.482704, 10.735527], [106.484342, 10.733488], [106.484678, 10.732998], [106.485981, 10.731461], [106.486008, 10.731426], [106.486882, 10.730294], [106.487152, 10.729944], [106.488995, 10.731384], [106.493332, 10.728674], [106.49429, 10.728448], [106.494694, 10.727963], [106.495679, 10.727916], [106.49768, 10.726548], [106.498307, 10.726191], [106.499357, 10.725266], [106.500614, 10.726178], [106.50146, 10.726747], [106.503399, 10.724327], [106.503731, 10.723913], [106.509077, 10.717173], [106.510672, 10.718099], [106.518672, 10.722741], [106.520151, 10.723652], [106.522841, 10.721667], [106.525898, 10.719633], [106.529489, 10.717584], [106.528654, 10.715788], [106.528986, 10.715255], [106.528956, 10.714558], [106.528503, 10.714801], [106.528093, 10.713198], [106.527659, 10.711451], [106.527442, 10.710714], [106.527194, 10.70975], [106.527069, 10.709117], [106.527097, 10.708544], [106.527245, 10.70788], [106.527484, 10.706914], [106.528112, 10.70489], [106.528402, 10.703725], [106.528613, 10.702748], [106.528783, 10.702249], [106.53022, 10.697929], [106.531782, 10.694062], [106.531911, 10.693742], [106.532442, 10.69243], [106.533739, 10.687974], [106.533796, 10.687923], [106.534317, 10.687562], [106.534835, 10.686703], [106.535093, 10.686084], [106.535275, 10.685667], [106.535487, 10.685577], [106.535679, 10.685577], [106.535922, 10.685597], [106.536225, 10.685667], [106.536508, 10.685727], [106.536861, 10.685856], [106.537194, 10.685976], [106.537578, 10.686106], [106.53779, 10.686195], [106.537871, 10.686205], [106.537962, 10.686215], [106.538093, 10.686205], [106.538285, 10.686155], [106.538649, 10.686066], [106.539032, 10.686026], [106.539315, 10.685996], [106.539901, 10.686085], [106.540325, 10.686175], [106.540961, 10.686275], [106.541517, 10.686384], [106.542032, 10.686464], [106.542597, 10.686504], [106.543153, 10.686524], [106.543496, 10.686594], [106.543819, 10.686673], [106.544112, 10.686743], [106.544395, 10.686803], [106.544627, 10.686833], [106.545163, 10.686882], [106.545738, 10.686922], [106.545838, 10.686937], [106.546263, 10.687002], [106.54689, 10.687122], [106.547061, 10.687131], [106.547153, 10.687144], [106.54732, 10.686868], [106.547584, 10.686592], [106.547848, 10.686396], [106.548125, 10.686281], [106.548229, 10.68627], [106.548459, 10.686245], [106.549001, 10.686345], [106.549462, 10.686354], [106.549693, 10.686307], [106.54998, 10.686203], [106.550233, 10.686007], [106.550439, 10.685735], [106.55071, 10.685326], [106.550802, 10.68499], [106.550852, 10.684703], [106.550877, 10.684557], [106.550978, 10.683996], [106.551011, 10.683618], [106.551044, 10.683355], [106.5511, 10.683103], [106.551236, 10.682588], [106.551304, 10.682233], [106.551347, 10.681798], [106.551391, 10.681294], [106.551375, 10.680482], [106.551397, 10.680093], [106.55151, 10.679647], [106.551663, 10.679251], [106.552029, 10.678563], [106.552166, 10.678326], [106.552765, 10.677308], [106.552879, 10.676751], [106.552893, 10.676066], [106.553032, 10.67575], [106.553621, 10.675481], [106.553633, 10.675399], [106.55365, 10.675281], [106.553564, 10.674938], [106.553236, 10.674353], [106.553407, 10.673225], [106.55334, 10.672019], [106.552986, 10.671508], [106.552488, 10.671244], [106.552255, 10.671033], [106.552151, 10.670617], [106.552186, 10.670405], [106.552575, 10.670012], [106.552757, 10.669623], [106.552921, 10.669121], [106.553116, 10.668995], [106.55357, 10.66887], [106.553665, 10.66871], [106.55366, 10.668451], [106.553388, 10.667724], [106.55325, 10.666715], [106.553264, 10.666072], [106.553236, 10.665473], [106.552822, 10.665187], [106.552079, 10.665001], [106.551765, 10.66483], [106.551608, 10.664487], [106.551502, 10.663552], [106.551508, 10.662717], [106.55138, 10.662189], [106.551394, 10.661532], [106.551294, 10.661175], [106.550923, 10.660647], [106.550737, 10.660076], [106.550495, 10.659077], [106.550338, 10.659048], [106.549998, 10.659107], [106.54921, 10.659762], [106.548924, 10.658905], [106.548896, 10.657506], [106.550114, 10.657518], [106.551565, 10.657511], [106.552743, 10.657573], [106.553277, 10.657448], [106.554392, 10.657192], [106.555891, 10.657021], [106.556004, 10.655505], [106.555663, 10.655265], [106.555392, 10.654893], [106.555191, 10.654288], [106.555134, 10.653842], [106.555063, 10.653342], [106.555141, 10.652558], [106.55526, 10.651929], [106.555328, 10.651569], [106.555463, 10.651123], [106.555762, 10.650756], [106.556473, 10.650604], [106.556664, 10.650427], [106.557005, 10.650074], [106.557426, 10.649517], [106.557864, 10.649393], [106.558398, 10.649364], [106.558836, 10.649429], [106.558933, 10.649537], [106.558975, 10.649794], [106.55895, 10.650213], [106.558815, 10.650687], [106.558776, 10.651052], [106.558833, 10.65139], [106.559012, 10.6517], [106.559259, 10.651726], [106.559614, 10.651589], [106.560038, 10.651492], [106.560654, 10.651475], [106.561079, 10.651541], [106.561271, 10.651608], [106.561574, 10.652039], [106.562066, 10.652596], [106.562397, 10.653042], [106.562681, 10.653197], [106.562944, 10.653163], [106.563123, 10.653139], [106.563575, 10.652991], [106.564141, 10.652899], [106.564753, 10.652918], [106.565139, 10.653095], [106.565458, 10.653385], [106.565732, 10.653764], [106.565937, 10.654076], [106.565977, 10.654375], [106.56597, 10.65506], [106.56607, 10.655546], [106.566197, 10.656139], [106.566247, 10.656369], [106.567271, 10.656147], [106.567972, 10.65612], [106.568557, 10.656141], [106.568861, 10.656278], [106.569142, 10.656368], [106.5694, 10.656367], [106.569703, 10.65625], [106.570519, 10.655784], [106.571848, 10.654946], [106.572267, 10.654621], [106.573106, 10.654108], [106.573409, 10.653899], [106.573241, 10.653092], [106.573074, 10.652538], [106.572978, 10.652031], [106.572977, 10.651777], [106.573161, 10.651129], [106.573158, 10.650621], [106.573243, 10.649828], [106.573844, 10.649624], [106.574105, 10.649718], [106.574653, 10.649783], [106.574831, 10.649822], [106.574968, 10.649754], [106.575049, 10.649551], [106.575075, 10.649415], [106.575116, 10.649361], [106.575226, 10.64932], [106.575431, 10.649251], [106.576006, 10.649235], [106.576457, 10.649179], [106.576608, 10.649164], [106.576703, 10.649056], [106.57677, 10.648866], [106.576852, 10.648798], [106.577044, 10.648784], [106.577661, 10.648929], [106.578127, 10.649116], [106.578375, 10.649264], [106.578719, 10.649654], [106.579036, 10.650153], [106.579204, 10.650814], [106.579289, 10.651355], [106.579249, 10.651626], [106.579168, 10.651694], [106.578784, 10.651709], [106.578401, 10.651698], [106.57825, 10.651712], [106.578196, 10.65178], [106.578183, 10.651955], [106.578174, 10.652956], [106.578163, 10.653348], [106.578247, 10.653713], [106.578413, 10.654037], [106.578716, 10.65436], [106.57899, 10.654548], [106.579156, 10.654723], [106.579363, 10.655127], [106.579597, 10.65537], [106.579954, 10.655476], [106.580255, 10.655474], [106.580556, 10.655405], [106.580802, 10.655255], [106.581198, 10.655172], [106.582171, 10.655221], [106.583047, 10.655244], [106.583053, 10.655162], [106.583085, 10.654662], [106.583165, 10.654121], [106.583341, 10.653809], [106.583668, 10.65351], [106.584297, 10.653304], [106.585144, 10.65307], [106.585937, 10.652822], [106.586471, 10.652766], [106.586659, 10.652766], [106.587293, 10.652768], [106.588526, 10.652897], [106.59028, 10.653213], [106.590466, 10.652076], [106.59068, 10.651047], [106.591282, 10.651017], [106.591469, 10.650123], [106.592264, 10.650173], [106.593772, 10.650409], [106.594649, 10.650567], [106.595308, 10.65078], [106.595021, 10.653676], [106.595843, 10.65359], [106.597292, 10.653123], [106.598741, 10.652548], [106.599565, 10.651913], [106.59977, 10.651382], [106.59991, 10.650946], [106.599937, 10.650783], [106.600045, 10.65062], [106.60019, 10.650411], [106.6003, 10.650416], [106.600243, 10.650619], [106.600235, 10.650699], [106.600317, 10.650701], [106.600557, 10.650712], [106.600894, 10.650782], [106.601207, 10.650875], [106.6014, 10.651004], [106.601521, 10.651134], [106.601594, 10.651371], [106.60162, 10.651597], [106.601622, 10.651965], [106.601647, 10.652155], [106.601744, 10.652332], [106.601901, 10.652498], [106.602034, 10.652616], [106.60236, 10.652958], [106.60253, 10.653219], [106.602712, 10.653562], [106.602797, 10.653787], [106.602871, 10.654131], [106.602969, 10.654427], [106.603091, 10.654712], [106.603321, 10.655067], [106.603551, 10.65541], [106.603758, 10.655813], [106.603807, 10.656002], [106.603832, 10.656275], [106.603894, 10.656607], [106.604028, 10.656915], [106.60421, 10.657283], [106.604392, 10.657531], [106.604704, 10.657915], [106.604718, 10.657933], [106.604968, 10.658183], [106.617416, 10.651431], [106.619847, 10.649472], [106.620994, 10.64907], [106.623399, 10.648046], [106.624833, 10.647484], [106.624486, 10.646843], [106.624376, 10.646681], [106.624101, 10.646547], [106.623936, 10.64644], [106.623854, 10.646332], [106.623851, 10.645926], [106.624149, 10.645303], [106.62423, 10.645059], [106.62423, 10.644897], [106.624146, 10.644707], [106.623954, 10.644519], [106.623707, 10.644439], [106.623487, 10.644386], [106.623377, 10.644279], [106.623211, 10.644036], [106.622937, 10.643929], [106.622115, 10.643934], [106.621868, 10.643827], [106.621675, 10.643557], [106.62159, 10.643071], [106.621561, 10.642719], [106.621394, 10.642179], [106.621171, 10.641504], [106.621143, 10.641369], [106.621169, 10.641098], [106.621278, 10.640935], [106.621797, 10.640662], [106.62248, 10.640334], [106.622971, 10.640034], [106.623464, 10.639896], [106.623765, 10.639949], [106.623957, 10.639975], [106.624093, 10.639866], [106.624202, 10.639757], [106.624421, 10.639729], [106.624613, 10.639728], [106.624804, 10.639646], [106.625023, 10.639617], [106.625215, 10.639616], [106.625434, 10.639669], [106.625737, 10.639965], [106.625958, 10.640262], [106.626232, 10.640369], [106.626479, 10.640394], [106.626863, 10.640392], [106.62722, 10.64058], [106.627633, 10.641038], [106.62802, 10.641631], [106.62824, 10.641819], [106.628788, 10.641951], [106.629034, 10.641896], [106.62928, 10.641759], [106.629551, 10.641271], [106.629711, 10.640405], [106.629711, 10.640288], [106.629709, 10.639918], [106.629625, 10.639567], [106.629624, 10.639377], [106.629924, 10.639344], [106.630191, 10.639363], [106.6306, 10.638973], [106.630505, 10.638859], [106.630295, 10.638611], [106.63041, 10.638316], [106.630467, 10.638135], [106.630667, 10.637697], [106.630943, 10.637298], [106.631114, 10.636926], [106.631159, 10.63668], [106.629958, 10.636398], [106.629714, 10.636317], [106.629654, 10.636169], [106.629872, 10.633163], [106.629714, 10.632133], [106.630479, 10.63023], [106.630533, 10.630013], [106.630449, 10.629797], [106.630146, 10.629474], [106.629788, 10.62907], [106.62954, 10.628693], [106.629483, 10.62826], [106.629479, 10.627584], [106.62978, 10.626384], [106.6306, 10.627466], [106.631133, 10.62817], [106.631647, 10.628303], [106.632161, 10.628284], [106.632789, 10.627999], [106.633627, 10.627142], [106.634769, 10.625391], [106.635207, 10.626171], [106.635606, 10.626343], [106.636215, 10.626171], [106.636977, 10.626228], [106.637853, 10.62659], [106.638614, 10.627161], [106.638919, 10.627675], [106.642059, 10.627958], [106.642437, 10.628324], [106.643335, 10.629213], [106.643776, 10.629642], [106.644756, 10.631534], [106.645695, 10.633513], [106.645869, 10.634365], [106.646281, 10.634728], [106.646715, 10.634792], [106.647148, 10.634728], [106.647668, 10.63445], [106.64795, 10.634107], [106.648383, 10.6337], [106.648729, 10.633529], [106.649401, 10.633464], [106.650181, 10.633442], [106.651157, 10.633292], [106.651893, 10.633078], [106.652327, 10.632906], [106.653253, 10.632987], [106.653426, 10.633177], [106.653492, 10.633496], [106.653386, 10.633794], [106.653259, 10.634135], [106.653131, 10.634412], [106.6531, 10.634672], [106.65307, 10.634922], [106.653159, 10.635517], [106.653096, 10.635751], [106.652774, 10.636029], [106.652324, 10.636287], [106.652174, 10.636436], [106.652089, 10.636692], [106.652177, 10.637074], [106.652394, 10.637371], [106.652761, 10.637666], [106.653043, 10.637941], [106.653217, 10.638323], [106.653348, 10.638684], [106.653695, 10.639128], [106.653976, 10.639361], [106.654127, 10.639402], [106.654299, 10.639359], [106.655265, 10.638865], [106.655845, 10.638585], [106.656102, 10.638457], [106.65621, 10.638456], [106.656318, 10.63854], [106.656535, 10.638901], [106.656733, 10.639644], [106.6568, 10.640132], [106.656759, 10.640579], [106.656611, 10.641026], [106.65629, 10.641432], [106.656248, 10.641623], [106.656144, 10.642262], [106.656191, 10.642899], [106.656236, 10.643239], [106.656452, 10.643472], [106.656797, 10.643555], [106.657356, 10.643467], [106.658001, 10.643251], [106.658752, 10.642801], [106.65946, 10.642435], [106.660169, 10.642177], [106.660648, 10.641918], [106.660363, 10.641319], [106.660106, 10.641162], [106.659977, 10.641019], [106.659906, 10.640719], [106.659891, 10.640548], [106.65982, 10.640348], [106.659891, 10.640034], [106.660048, 10.639862], [106.660291, 10.639877], [106.660762, 10.640119], [106.661048, 10.640034], [106.661305, 10.639877], [106.661419, 10.639905], [106.66169, 10.640005], [106.661933, 10.639905], [106.66219, 10.639448], [106.662618, 10.639306], [106.662847, 10.639363], [106.663004, 10.63962], [106.663004, 10.639905], [106.663018, 10.640062], [106.663304, 10.640119], [106.663532, 10.639977], [106.663989, 10.639548], [106.664474, 10.639491], [106.664688, 10.639434], [106.664845, 10.638934], [106.664931, 10.638877], [106.665131, 10.638934], [106.665359, 10.639348], [106.665459, 10.639591], [106.665616, 10.639634], [106.665831, 10.639491], [106.665831, 10.639191], [106.665759, 10.638763], [106.665859, 10.638463], [106.666116, 10.638449], [106.66633, 10.638692], [106.666487, 10.638963], [106.666502, 10.63942], [106.666402, 10.639848], [106.666359, 10.640205], [106.666486, 10.640545], [106.667314, 10.639652], [106.667921, 10.639236], [106.668537, 10.639127], [106.669181, 10.63915], [106.669637, 10.63928], [106.670176, 10.639701], [106.670689, 10.640387], [106.671095, 10.641047], [106.671526, 10.641495], [106.672199, 10.641862], [106.673005, 10.642122], [106.673247, 10.642253], [106.673382, 10.642518], [106.673387, 10.643444], [106.673551, 10.64392], [106.67374, 10.644237], [106.67401, 10.644448], [106.674601, 10.644709], [106.675084, 10.644813], [106.676372, 10.644859], [106.677445, 10.644906], [106.678518, 10.645112], [106.679271, 10.645426], [106.679971, 10.646005], [106.680378, 10.646744], [106.680703, 10.647351], [106.681215, 10.647852], [106.681728, 10.648432], [106.682697, 10.649195], [106.684178, 10.650114], [106.685094, 10.65093], [106.685391, 10.651431], [106.685555, 10.65196], [106.685719, 10.652383], [106.68583, 10.65315], [106.685834, 10.653812], [106.685628, 10.655508], [106.685393, 10.656569], [106.685902, 10.65646], [106.686571, 10.656316], [106.686972, 10.656102], [106.687213, 10.655871], [106.687559, 10.655366], [106.68777, 10.654835], [106.688115, 10.654091], [106.68846, 10.653427], [106.688939, 10.652763], [106.689339, 10.65239], [106.689925, 10.651724], [106.690192, 10.651405], [106.690377, 10.651007], [106.690375, 10.650663], [106.6904, 10.650265], [106.69029, 10.649736], [106.690233, 10.649207], [106.690312, 10.648942], [106.690446, 10.648809], [106.690793, 10.648648], [106.691437, 10.648644], [106.692162, 10.648826], [106.692887, 10.64906], [106.693801, 10.649373], [106.694499, 10.649555], [106.694848, 10.649579], [106.695304, 10.649603], [106.695787, 10.649654], [106.696271, 10.649863], [106.69654, 10.650153], [106.696746, 10.650404], [106.696812, 10.650787], [106.696922, 10.651184], [106.697111, 10.651553], [106.697677, 10.65208], [106.698781, 10.652842], [106.699535, 10.653447], [106.700074, 10.653841], [106.700397, 10.653972], [106.700638, 10.653971], [106.700958, 10.653704], [106.701439, 10.653278], [106.701759, 10.652985], [106.702053, 10.652904], [106.702456, 10.652981], [106.703208, 10.653189], [106.703557, 10.653213], [106.703744, 10.653186], [106.704011, 10.652946], [106.704249, 10.652309], [106.704539, 10.651487], [106.704779, 10.651194], [106.705153, 10.650927], [106.705528, 10.650766], [106.706224, 10.650603], [106.706866, 10.650256], [106.707321, 10.650068], [106.708017, 10.649905], [106.708741, 10.649901], [106.709385, 10.65003], [106.710379, 10.650342], [106.710648, 10.650473], [106.711185, 10.65055], [106.711748, 10.650467], [106.712309, 10.650226], [106.713459, 10.649505], [106.714848, 10.648676], [106.715703, 10.648115], [106.716718, 10.647342], [106.717411, 10.646623], [106.717972, 10.646169], [106.718694, 10.645742], [106.719363, 10.645553], [106.719953, 10.645576], [106.720329, 10.645733], [106.720894, 10.645994], [106.721565, 10.646097], [106.722021, 10.646041], [106.722448, 10.645827], [106.722928, 10.645268], [106.723164, 10.644393], [106.723211, 10.643175], [106.723127, 10.64246], [106.723124, 10.641877], [106.723149, 10.641612], [106.723308, 10.64132], [106.723574, 10.641001], [106.724083, 10.64076], [106.72467, 10.640306], [106.725149, 10.639721], [106.725388, 10.639137], [106.725519, 10.638765], [106.725705, 10.638367], [106.726132, 10.637968], [106.726854, 10.637566], [106.727844, 10.637243], [106.728807, 10.636894], [106.72977, 10.636438], [106.73017, 10.636065], [106.73073, 10.635373], [106.7311, 10.634577], [106.731205, 10.6341], [106.731196, 10.633955], [106.73155, 10.633325], [106.731585, 10.633271], [106.731361, 10.633334], [106.731307, 10.633328], [106.731283, 10.633311], [106.731255, 10.633293], [106.731232, 10.633286], [106.731187, 10.633281], [106.731154, 10.633286], [106.73114, 10.633292], [106.731148, 10.633219], [106.731176, 10.633084], [106.731219, 10.632949], [106.731261, 10.632842], [106.731327, 10.632716], [106.731491, 10.63243], [106.732367, 10.630968], [106.732527, 10.630663], [106.732685, 10.630198], [106.732816, 10.629708], [106.733015, 10.62927], [106.733188, 10.62903], [106.73324, 10.628884], [106.733186, 10.628752], [106.733175, 10.62874], [106.732916, 10.628462], [106.732499, 10.628107], [106.732216, 10.627884], [106.731934, 10.627753], [106.731706, 10.627741], [106.731437, 10.627756], [106.731197, 10.627889], [106.730743, 10.628249], [106.730329, 10.628543], [106.730075, 10.628664], [106.729767, 10.628731], [106.729593, 10.628732], [106.729278, 10.62857], [106.729066, 10.628285], [106.728965, 10.627979], [106.728874, 10.627555], [106.728809, 10.627184], [106.728653, 10.62646], [106.728331, 10.625065], [106.728302, 10.624667], [106.728373, 10.624428], [106.728738, 10.624073], [106.728996, 10.623965], [106.729452, 10.623857], [106.729962, 10.623792], [106.730508, 10.62378], [106.731001, 10.623795], [106.73121, 10.623776], [106.731399, 10.623701], [106.731532, 10.62357], [106.731662, 10.623382], [106.731752, 10.623198], [106.731792, 10.622946], [106.731781, 10.622785], [106.731718, 10.622584], [106.731533, 10.622243], [106.731184, 10.621791], [106.730774, 10.621311], [106.730466, 10.62099], [106.730282, 10.62082], [106.730087, 10.62062], [106.729943, 10.620419], [106.72985, 10.620208], [106.729798, 10.619987], [106.729797, 10.619756], [106.729846, 10.619433], [106.729915, 10.619111], [106.729944, 10.618688], [106.729961, 10.618165], [106.729949, 10.617933], [106.729887, 10.617702], [106.729692, 10.617461], [106.729517, 10.617241], [106.729405, 10.617091], [106.729312, 10.61688], [106.729208, 10.616598], [106.729064, 10.616388], [106.728911, 10.616248], [106.728758, 10.616208], [106.728635, 10.616239], [106.728463, 10.616381], [106.728301, 10.616543], [106.728139, 10.616685], [106.727956, 10.616827], [106.727885, 10.616847], [106.727783, 10.616808], [106.72768, 10.616687], [106.727598, 10.616537], [106.727556, 10.616386], [106.727545, 10.616185], [106.727574, 10.615913], [106.727603, 10.615671], [106.727693, 10.615399], [106.727854, 10.615046], [106.728025, 10.614672], [106.728176, 10.614289], [106.728317, 10.613916], [106.728446, 10.613422], [106.728567, 10.613029], [106.728849, 10.612494], [106.729132, 10.612049], [106.729274, 10.611907], [106.729406, 10.611876], [106.729528, 10.611916], [106.729774, 10.612066], [106.730193, 10.612345], [106.730398, 10.612435], [106.730591, 10.612454], [106.730764, 10.612443], [106.731039, 10.612351], [106.731283, 10.612259], [106.731446, 10.612207], [106.731609, 10.612136], [106.73169, 10.612055], [106.73174, 10.611924], [106.731749, 10.611813], [106.73183, 10.611581], [106.731972, 10.61143], [106.732174, 10.611157], [106.732396, 10.610753], [106.732597, 10.610329], [106.732795, 10.60996], [106.732078, 10.609357], [106.731741, 10.609103], [106.731605, 10.609028], [106.731404, 10.60892], [106.731255, 10.60887], [106.731087, 10.608839], [106.730886, 10.608827], [106.730621, 10.608854], [106.730318, 10.608913], [106.730079, 10.608966], [106.729595, 10.609147], [106.729234, 10.609277], [106.729011, 10.609389], [106.728857, 10.609199], [106.728702, 10.609082], [106.728523, 10.609025], [106.728368, 10.609014], [106.728297, 10.609038], [106.728202, 10.609109], [106.728072, 10.609215], [106.727835, 10.60944], [106.72729, 10.609984], [106.72716, 10.61015], [106.726971, 10.610492], [106.726901, 10.610751], [106.726759, 10.610999], [106.726688, 10.611138], [106.726589, 10.611265], [106.726495, 10.611331], [106.726407, 10.61137], [106.72629, 10.611387], [106.726096, 10.611377], [106.725868, 10.61134], [106.725612, 10.611303], [106.725434, 10.611288], [106.725284, 10.6113], [106.72514, 10.61135], [106.724941, 10.611433], [106.724658, 10.611577], [106.724448, 10.611699], [106.724293, 10.611788], [106.72409, 10.61191], [106.723953, 10.61193], [106.723845, 10.61187], [106.723675, 10.611719], [106.723489, 10.611416], [106.723272, 10.611068], [106.723101, 10.610857], [106.722915, 10.610433], [106.72282, 10.609963], [106.722662, 10.609281], [106.722522, 10.608842], [106.722366, 10.608418], [106.722349, 10.608175], [106.722346, 10.607704], [106.722331, 10.607567], [106.722225, 10.607188], [106.722, 10.606911], [106.721775, 10.606767], [106.721495, 10.606689], [106.721158, 10.606634], [106.720585, 10.606646], [106.719957, 10.606613], [106.719597, 10.606513], [106.719283, 10.606381], [106.719114, 10.606259], [106.719013, 10.606159], [106.719, 10.606117], [106.718937, 10.605922], [106.718954, 10.605071], [106.719115, 10.604082], [106.719514, 10.602973], [106.720389, 10.601627], [106.721028, 10.600917], [106.721739, 10.600207], [106.721832, 10.599806], [106.721783, 10.59943], [106.721421, 10.598796], [106.720822, 10.598164], [106.720365, 10.597366], [106.720266, 10.596778], [106.720288, 10.596378], [106.720381, 10.596], [106.720641, 10.595622], [106.721187, 10.595172], [106.722018, 10.594673], [106.722873, 10.594056], [106.72337, 10.593489], [106.723559, 10.593111], [106.723579, 10.592452], [106.723573, 10.59151], [106.72364, 10.590871], [106.723659, 10.590752], [106.723659, 10.590632], [106.723651, 10.590491], [106.723607, 10.590251], [106.723519, 10.589963], [106.723382, 10.589632], [106.723303, 10.589405], [106.723247, 10.589226], [106.72321, 10.58901], [106.7232, 10.58884], [106.723207, 10.588606], [106.723216, 10.588463], [106.723242, 10.588337], [106.723314, 10.588175], [106.723413, 10.588004], [106.72353, 10.58786], [106.723648, 10.587733], [106.72382, 10.587589], [106.723928, 10.587463], [106.724036, 10.587328], [106.724108, 10.587219], [106.724157, 10.587128], [106.724171, 10.587102], [106.724207, 10.587003], [106.72426, 10.586824], [106.72435, 10.586509], [106.72443, 10.586284], [106.724538, 10.586086], [106.724637, 10.585888], [106.724754, 10.585744], [106.724917, 10.58559], [106.725134, 10.585428], [106.725315, 10.585319], [106.725442, 10.585255], [106.725614, 10.585228], [106.725814, 10.585226], [106.725969, 10.585244], [106.726187, 10.585314], [106.726388, 10.585412], [106.72657, 10.585483], [106.726716, 10.585554], [106.726852, 10.585589], [106.726952, 10.585588], [106.727025, 10.585552], [106.72707, 10.58548], [106.727078, 10.58539], [106.727059, 10.585264], [106.727004, 10.585139], [106.726931, 10.585032], [106.726785, 10.58488], [106.726693, 10.584764], [106.726656, 10.584647], [106.726646, 10.584468], [106.726663, 10.584297], [106.726717, 10.5841], [106.726779, 10.58392], [106.72683, 10.583797], [106.727017, 10.583539], [106.727151, 10.583352], [106.727257, 10.583104], [106.727364, 10.582943], [106.727408, 10.582828], [106.727425, 10.582739], [106.727434, 10.58258], [106.727459, 10.582384], [106.727512, 10.582251], [106.727708, 10.581967], [106.727967, 10.581637], [106.728073, 10.581433], [106.728233, 10.581113], [106.728321, 10.580846], [106.728383, 10.580651], [106.728453, 10.580438], [106.728524, 10.580296], [106.728622, 10.580127], [106.728702, 10.580047], [106.728864, 10.579984], [106.729016, 10.579965], [106.729267, 10.579928], [106.7295, 10.579891], [106.729751, 10.57981], [106.73002, 10.579711], [106.73019, 10.57971], [106.730207, 10.579716], [106.730531, 10.579762], [106.730729, 10.579716], [106.730971, 10.579706], [106.731258, 10.579749], [106.731465, 10.57981], [106.731762, 10.579897], [106.732031, 10.579984], [106.732292, 10.580115], [106.73249, 10.580221], [106.732589, 10.580264], [106.732697, 10.580273], [106.732751, 10.580272], [106.732824, 10.580358], [106.732923, 10.580479], [106.73303, 10.58064], [106.733113, 10.580801], [106.733196, 10.580971], [106.733303, 10.581107], [106.733443, 10.581268], [106.733599, 10.581389], [106.733788, 10.581509], [106.734034, 10.581629], [106.734305, 10.581797], [106.734576, 10.582022], [106.7347, 10.582167], [106.734799, 10.582303], [106.73484, 10.582408], [106.734907, 10.58261], [106.734908, 10.582756], [106.734876, 10.582917], [106.734771, 10.583128], [106.73469, 10.583323], [106.73465, 10.583501], [106.734651, 10.583622], [106.734668, 10.583775], [106.734718, 10.583945], [106.734793, 10.584114], [106.734851, 10.584267], [106.734868, 10.584421], [106.734861, 10.584558], [106.734853, 10.58468], [106.734806, 10.584914], [106.734752, 10.585223], [106.73485, 10.585428], [106.735075, 10.58581], [106.735295, 10.586141], [106.735434, 10.586278], [106.735555, 10.586369], [106.735786, 10.586443], [106.73597, 10.586477], [106.736201, 10.586483], [106.736542, 10.586448], [106.736842, 10.586397], [106.737142, 10.586305], [106.737523, 10.586151], [106.737921, 10.585957], [106.738221, 10.585757], [106.738498, 10.585511], [106.738714, 10.585297], [106.738739, 10.58527], [106.738824, 10.585157], [106.739024, 10.584815], [106.739271, 10.584295], [106.7394, 10.583906], [106.739516, 10.58327], [106.739501, 10.5828], [106.739452, 10.58247], [106.739367, 10.582141], [106.739162, 10.581778], [106.738934, 10.58145], [106.73867, 10.58118], [106.738288, 10.580959], [106.737882, 10.580785], [106.737583, 10.580633], [106.73738, 10.58047], [106.73702, 10.58006], [106.736637, 10.579697], [106.736135, 10.579429], [106.735574, 10.579197], [106.735275, 10.578999], [106.735059, 10.578729], [106.73501, 10.578471], [106.735068, 10.578152], [106.735244, 10.57781], [106.735564, 10.577409], [106.736027, 10.577135], [106.736312, 10.577063], [106.736765, 10.577084], [106.736992, 10.577201], [106.737196, 10.577447], [106.737424, 10.577798], [106.737617, 10.578115], [106.73782, 10.578302], [106.738047, 10.578454], [106.738644, 10.578662], [106.73942, 10.578858], [106.740135, 10.579054], [106.740414, 10.579078], [106.74066, 10.579098], [106.741232, 10.579072], [106.741755, 10.578986], [106.741964, 10.578901], [106.74211, 10.578836], [106.742246, 10.578775], [106.742372, 10.578711], [106.742498, 10.578641], [106.74256, 10.578601], [106.743109, 10.578296], [106.7447, 10.577062], [106.745702, 10.576276], [106.745715, 10.576266], [106.745422, 10.57598], [106.744539, 10.574296], [106.743837, 10.572359], [106.743175, 10.570997], [106.742586, 10.569343], [106.742128, 10.566971], [106.741897, 10.563921], [106.741955, 10.562807], [106.742009, 10.561775], [106.742349, 10.558386], [106.743032, 10.55511], [106.74308, 10.55492], [106.743427, 10.553281], [106.746486, 10.538843], [106.748461, 10.525903], [106.748486, 10.525683], [106.748363, 10.523312], [106.747988, 10.521266], [106.747395, 10.5194], [106.746768, 10.517822], [106.745555, 10.515636], [106.744198, 10.513667], [106.741961, 10.510391], [106.740692, 10.507936], [106.739522, 10.505414], [106.739054, 10.504405], [106.737802, 10.501645], [106.736981, 10.499618], [106.735806, 10.498168], [106.735018, 10.497328], [106.735033, 10.497307], [106.73842, 10.492594], [106.73975, 10.490263], [106.741438, 10.487653], [106.74407, 10.483194], [106.746051, 10.479512], [106.747645, 10.476834], [106.748922, 10.474615], [106.74926, 10.474019], [106.749784, 10.473095], [106.750642, 10.4716], [106.751121, 10.470746], [106.751849, 10.469611], [106.751984, 10.469277], [106.752888, 10.467816], [106.754782, 10.464573], [106.756998, 10.460891], [106.757988, 10.459021], [106.761157, 10.453788], [106.772088, 10.440145], [106.77624, 10.434961], [106.776417, 10.434744], [106.780772, 10.429594], [106.786548, 10.423795], [106.792507, 10.418402], [106.796664, 10.414884], [106.800412, 10.411717], [106.802695, 10.409607], [106.803738, 10.408447], [106.805731, 10.406006], [106.816692, 10.39258], [106.831356, 10.379381], [106.842778, 10.36332], [106.862051, 10.393658], [106.863952, 10.408778], [106.866736, 10.409351], [106.871317, 10.409589], [106.873101, 10.408816], [106.873993, 10.406615], [106.879645, 10.390851], [106.880489, 10.389459], [106.880775, 10.388126], [106.880442, 10.386699], [106.879252, 10.383891], [106.8783, 10.381845], [106.875921, 10.378894], [106.875017, 10.378323], [106.874969, 10.377799], [106.875397, 10.377371], [106.877063, 10.376324], [106.882441, 10.375848], [106.891863, 10.376657], [106.896218, 10.37661], [106.898668, 10.376824], [106.90062, 10.377276], [106.902642, 10.378299], [106.905712, 10.380012], [106.908305, 10.38125], [106.909638, 10.381416], [106.910756, 10.382011], [106.912231, 10.38213], [106.913278, 10.382082], [106.91404, 10.382249], [106.915967, 10.383367], [106.923677, 10.387531], [106.932052, 10.391362], [106.934479, 10.392957], [106.935236, 10.393478], [106.93555, 10.393694], [106.937073, 10.394265], [106.938429, 10.394598], [106.941491, 10.395239], [106.944727, 10.396381], [106.947796, 10.397452], [106.959075, 10.401711], [106.960384, 10.402282], [106.966451, 10.404923], [106.968212, 10.405566], [106.970306, 10.406303], [106.971448, 10.406993], [106.972233, 10.407565], [106.972828, 10.408397], [106.973851, 10.410111], [106.974304, 10.411586], [106.974803, 10.413156], [106.975303, 10.415441], [106.975588, 10.416107], [106.979755, 10.431633], [106.980777, 10.449953], [106.981777, 10.457091], [106.984632, 10.465729], [106.9897, 10.474795], [106.993483, 10.478007], [107.001607, 10.480278], [106.997036, 10.49123], [106.998426, 10.500615], [106.998828, 10.502921], [106.999457, 10.504302], [106.999849, 10.505069], [107.001017, 10.505921], [107.004526, 10.507687], [107.006565, 10.509082], [107.008656, 10.511011], [107.010467, 10.513087], [107.011505, 10.514804], [107.012149, 10.516038], [107.01267, 10.5172], [107.013131, 10.518605], [107.013333, 10.519599], [107.013591, 10.521734], [107.013669, 10.522389], [107.010537, 10.525697], [107.009351, 10.527054], [107.00725, 10.528684], [107.00451, 10.530314], [107.002316, 10.53077], [107.000761, 10.530411], [106.998656, 10.529511], [106.995088, 10.528432], [106.993229, 10.528191], [106.990599, 10.528456], [106.989037, 10.529076], [106.987788, 10.530108], [106.986487, 10.531654], [106.985656, 10.533303], [106.985034, 10.53557], [106.984621, 10.537836], [106.984685, 10.539794], [106.984891, 10.540193], [106.98514, 10.540644], [106.985783, 10.54236], [106.986609, 10.544617], [106.987712, 10.548049], [106.988174, 10.550758], [106.988177, 10.552655], [106.987722, 10.554463], [106.986902, 10.556362], [106.986081, 10.557447], [106.984985, 10.558533], [106.981696, 10.560405], [106.980234, 10.561732], [106.979383, 10.562878], [106.978958, 10.563902], [106.978897, 10.564475], [106.97899, 10.565258], [106.979297, 10.566552], [106.979695, 10.567545], [106.980001, 10.568358], [106.980704, 10.569863], [106.981286, 10.571608], [106.981929, 10.573234], [106.982327, 10.574227], [106.982694, 10.57525], [106.983032, 10.576605], [106.983277, 10.577628], [106.983733, 10.579208], [106.983554, 10.579258], [106.983247, 10.579501], [106.982697, 10.579988], [106.981903, 10.580606], [106.980486, 10.581479], [106.979626, 10.58192], [106.978993, 10.582133], [106.97844, 10.582201], [106.977822, 10.582237], [106.97735, 10.582208], [106.976699, 10.582099], [106.976292, 10.582069], [106.975706, 10.582041], [106.975268, 10.582157], [106.974927, 10.582336], [106.974603, 10.582596], [106.973349, 10.583915], [106.972057, 10.585454], [106.970222, 10.587714], [106.969464, 10.58867], [106.968752, 10.589303], [106.968072, 10.589807], [106.967634, 10.590099], [106.966669, 10.59052], [106.965873, 10.590719], [106.965076, 10.590853], [106.964329, 10.59097], [106.963696, 10.591216], [106.96308, 10.591639], [106.962051, 10.592525], [106.961193, 10.593272], [106.960512, 10.593582], [106.959781, 10.593748], [106.959163, 10.5938], [106.95791, 10.593824], [106.955375, 10.594206], [106.953756, 10.594665], [106.94986, 10.596027], [106.948424, 10.596661], [106.947384, 10.597156], [106.946607, 10.597381], [106.946011, 10.597353], [106.944919, 10.597037], [106.943892, 10.596786], [106.942798, 10.596652], [106.942177, 10.596618], [106.941384, 10.596722], [106.940867, 10.596893], [106.940557, 10.597063], [106.940041, 10.597507], [106.93949, 10.598121], [106.939077, 10.598632], [106.938602, 10.59936], [106.937842, 10.599907], [106.937197, 10.600128], [106.936433, 10.600213], [106.935896, 10.600184], [106.935522, 10.600203], [106.9352, 10.600382], [106.934656, 10.600684], [106.933323, 10.601399], [106.932151, 10.601979], [106.931271, 10.602282], [106.929429, 10.602766], [106.928085, 10.603109], [106.926913, 10.603689], [106.925914, 10.604474], [106.92471, 10.606216], [106.923535, 10.607684], [106.922599, 10.608947], [106.922033, 10.609546], [106.921255, 10.60997], [106.920507, 10.61012], [106.919442, 10.610174], [106.9184, 10.610052], [106.917552, 10.609799], [106.916638, 10.609338], [106.915773, 10.608892], [106.914956, 10.608445], [106.913782, 10.608017], [106.912974, 10.607809], [106.91203, 10.607879], [106.911284, 10.608158], [106.910766, 10.608596], [106.910719, 10.608667], [106.9098, 10.609966], [106.908522, 10.612729], [106.905621, 10.620383], [106.904343, 10.623434], [106.903455, 10.624668], [106.902437, 10.625625], [106.9016, 10.626405], [106.899706, 10.627974], [106.898248, 10.629028], [106.898, 10.629177], [106.897262, 10.629874], [106.896903, 10.630898], [106.896275, 10.632902], [106.895556, 10.634372], [106.894522, 10.635442], [106.893487, 10.636467], [106.892562, 10.636919], [106.891274, 10.637351], [106.890104, 10.637708], [106.889257, 10.638009], [106.888788, 10.638205], [106.887685, 10.638751], [106.886272, 10.639457], [106.88487, 10.640742], [106.884421, 10.642162], [106.884329, 10.643049], [106.884302, 10.643967], [106.88416, 10.644758], [106.883969, 10.645403], [106.883569, 10.646333], [106.883475, 10.646769], [106.883169, 10.647286], [106.882845, 10.647611], [106.88199, 10.647986], [106.880723, 10.648299], [106.879324, 10.648437], [106.875427, 10.64843], [106.874238, 10.648243], [106.873098, 10.648057], [106.872772, 10.647994], [106.872249, 10.647627], [106.871626, 10.646921], [106.871498, 10.64673], [106.871281, 10.646408], [106.870985, 10.645878], [106.870722, 10.644859], [106.87039, 10.643829], [106.870012, 10.643219], [106.869309, 10.642708], [106.868771, 10.642518], [106.867492, 10.64259], [106.866467, 10.642693], [106.865702, 10.642617], [106.864657, 10.642124], [106.863731, 10.641635], [106.863681, 10.641578], [106.863337, 10.641186], [106.862893, 10.640415], [106.862447, 10.639247], [106.861886, 10.637945], [106.861279, 10.637142], [106.860336, 10.636554], [106.859554, 10.636446], [106.85892, 10.636627], [106.857673, 10.6371], [106.855694, 10.638175], [106.85396, 10.638995], [106.8525, 10.639463], [106.851366, 10.639602], [106.84993, 10.63961], [106.84836, 10.639422], [106.846789, 10.639068], [106.844549, 10.638486], [106.843131, 10.637986], [106.841284, 10.636765], [106.841022, 10.636476], [106.840511, 10.635464], [106.840097, 10.634265], [106.839664, 10.632291], [106.839266, 10.630769], [106.838705, 10.629435], [106.838034, 10.628604], [106.836708, 10.627525], [106.836699, 10.627517], [106.835426, 10.626961], [106.834415, 10.626628], [106.833667, 10.626633], [106.832274, 10.626689], [106.830273, 10.626942], [106.827984, 10.627356], [106.826278, 10.627833], [106.824835, 10.628615], [106.823101, 10.629834], [106.819213, 10.634159], [106.816711, 10.637066], [106.815486, 10.638534], [106.813214, 10.641987], [106.812796, 10.64294], [106.81219, 10.6449], [106.81176, 10.646482], [106.811234, 10.648435], [106.810903, 10.649685], [106.809899, 10.65278], [106.808243, 10.655102], [106.8058, 10.657218], [106.801726, 10.66004], [106.796939, 10.662661], [106.794419, 10.664567], [106.793488, 10.665371], [106.792517, 10.666263], [106.789385, 10.668884], [106.787521, 10.670253], [106.78605, 10.671048], [106.78423, 10.671937], [106.779399, 10.674064], [106.776154, 10.675185], [106.776077, 10.675212], [106.774336, 10.676148], [106.773988, 10.676335], [106.773178, 10.676932], [106.772485, 10.677518], [106.767714, 10.682144], [106.765755, 10.684092], [106.762587, 10.687758], [106.761491, 10.689019], [106.760179, 10.690282], [106.760126, 10.690328], [106.759586, 10.690805], [106.75867, 10.691743], [106.757745, 10.692904], [106.756417, 10.694687], [106.755988, 10.695263], [106.754402, 10.697594], [106.753777, 10.698978], [106.752756, 10.702112], [106.752095, 10.704353], [106.751994, 10.704698], [106.751422, 10.707454], [106.751215, 10.709248], [106.751168, 10.710378], [106.751224, 10.712376], [106.751234, 10.712732], [106.751234, 10.712753], [106.751235, 10.712773], [106.751253, 10.713473], [106.751727, 10.716624], [106.751917, 10.718581], [106.752304, 10.72042], [106.752883, 10.721942], [106.753656, 10.723463], [106.75507, 10.725365], [106.764866, 10.737725], [106.765612, 10.738803], [106.766634, 10.740411], [106.766659, 10.74045], [106.767381, 10.741536], [106.767928, 10.742322], [106.768656, 10.743143], [106.769702, 10.744204], [106.770847, 10.745291], [106.772663, 10.746697], [106.774151, 10.747692], [106.777315, 10.749368], [106.778065, 10.749715], [106.781787, 10.751437], [106.783429, 10.752197], [106.783478, 10.75222], [106.785336, 10.753042], [106.788688, 10.754386], [106.790937, 10.755314], [106.792152, 10.755816], [106.792865, 10.75611], [106.796888, 10.757772], [106.799318, 10.758995], [106.799783, 10.759297], [106.800397, 10.759696], [106.801378, 10.760408], [106.801869, 10.760943], [106.802708, 10.762139], [106.803218, 10.762853], [106.803401, 10.763193], [106.803851, 10.764365], [106.804662, 10.767031], [106.805214, 10.768642], [106.80559, 10.769545], [106.806065, 10.770331], [106.806685, 10.771224], [106.807322, 10.771955], [106.809602, 10.774172], [106.810714, 10.775297], [106.812805, 10.777293], [106.814539, 10.778654], [106.816317, 10.779702], [106.817966, 10.780391], [106.819416, 10.780885], [106.820338, 10.781005], [106.820971, 10.781001], [106.82173, 10.780871], [106.822199, 10.780707], [106.822228, 10.78069], [106.822532, 10.780517], [106.823468, 10.779812], [106.824348, 10.778874], [106.825065, 10.777848], [106.825296, 10.777219], [106.825623, 10.775918], [106.825738, 10.773981], [106.825602, 10.772529], [106.825333, 10.771267], [106.82467, 10.769281], [106.823815, 10.766892], [106.823148, 10.764332], [106.823017, 10.763473], [106.823037, 10.762424], [106.823195, 10.761544], [106.823461, 10.760772], [106.823855, 10.76016], [106.824251, 10.759817], [106.824828, 10.75958], [106.825785, 10.759449], [106.826636, 10.759552], [106.828303, 10.760223], [106.82892, 10.760632], [106.829298, 10.761002], [106.82932, 10.761024], [106.829639, 10.761551], [106.830497, 10.762944], [106.831191, 10.76398], [106.831363, 10.764203], [106.835585, 10.769196], [106.836334, 10.769911], [106.837705, 10.771023], [106.839025, 10.771997], [106.840719, 10.773164], [106.841675, 10.773733], [106.842617, 10.774193], [106.843415, 10.774506], [106.845057, 10.775098], [106.846577, 10.775404], [106.848711, 10.775499], [106.851272, 10.775156], [106.852121, 10.774936], [106.853067, 10.774451], [106.853642, 10.774146], [106.854262, 10.773578], [106.858419, 10.769116], [106.860935, 10.766716], [106.862412, 10.765739], [106.863854, 10.765067], [106.865288, 10.764637], [106.866896, 10.764484], [106.868289, 10.764565], [106.869465, 10.764827], [106.870716, 10.765465], [106.871751, 10.766158], [106.872633, 10.766932], [106.873198, 10.7677], [106.8738, 10.7687], [106.874022, 10.769434], [106.874155, 10.770455], [106.874114, 10.771199], [106.873868, 10.772294], [106.873352, 10.773642], [106.8722, 10.775899], [106.871359, 10.777231], [106.870479, 10.778294], [106.868711, 10.78025], [106.866645, 10.782396], [106.865442, 10.78373], [106.864995, 10.784449], [106.864665, 10.785177], [106.864366, 10.786578], [106.864361, 10.786634], [106.864265, 10.788452], [106.864399, 10.789176], [106.864734, 10.789965], [106.865735, 10.791215], [106.868538, 10.793186], [106.875679, 10.798509], [106.878684, 10.802125], [106.880688, 10.804821], [106.881557, 10.806531], [106.881759, 10.808374], [106.881646, 10.810081], [106.881553, 10.810659], [106.881058, 10.812472], [106.879498, 10.815843], [106.878123, 10.81854], [106.877137, 10.819837], [106.875836, 10.821377], [106.872296, 10.824858], [106.872098, 10.825029], [106.870963, 10.826007], [106.870363, 10.826525], [106.86499, 10.832957], [106.864538, 10.833504], [106.863193, 10.83516], [106.859879, 10.838474], [106.858275, 10.840389], [106.857032, 10.8417], [106.855363, 10.843132], [106.855356, 10.84314], [106.854683, 10.843877], [106.854236, 10.844669], [106.853432, 10.846647], [106.852954, 10.848023], [106.852136, 10.850601], [106.850853, 10.853784], [106.849066, 10.857563], [106.846826, 10.8623], [106.846741, 10.863299], [106.846725, 10.863366], [106.846628, 10.864637], [106.846702, 10.865357], [106.847091, 10.866384], [106.84813, 10.868626], [106.849395, 10.870986], [106.85028, 10.873521], [106.85088, 10.875061], [106.850987, 10.876017], [106.850827, 10.876515], [106.850561, 10.876891], [106.849492, 10.878201], [106.847594, 10.880304], [106.846383, 10.88146], [106.844275, 10.883202], [106.843615, 10.884457], [106.843349, 10.886188], [106.843009, 10.889022], [106.842654, 10.891094], [106.842083, 10.893839], [106.841361, 10.896278], [106.840376, 10.898641], [106.840341, 10.898646], [106.838751, 10.898885], [106.838533, 10.898905], [106.837385, 10.899011], [106.834891, 10.899026], [106.833673, 10.899004], [106.832941, 10.89841], [106.832581, 10.897794], [106.832073, 10.897296], [106.831496, 10.896752], [106.831236, 10.896507], [106.830462, 10.89607], [106.829954, 10.895572], [106.828141, 10.895406], [106.827131, 10.895412], [106.826018, 10.895581], [106.825392, 10.895143], [106.824613, 10.894117], [106.823835, 10.89315], [106.823612, 10.892722], [106.823586, 10.891297], [106.823589, 10.891193], [106.823647, 10.889162], [106.823612, 10.888308], [106.823073, 10.887575], [106.822239, 10.887198], [106.8213, 10.8866], [106.820793, 10.886279], [106.819159, 10.88623], [106.818681, 10.885732], [106.818201, 10.884969], [106.817662, 10.884295], [106.817566, 10.883059], [106.817277, 10.881323], [106.817039, 10.881147], [106.816842, 10.881178], [106.816582, 10.881219], [106.81608, 10.881568], [106.814367, 10.879558], [106.81355, 10.878677], [106.813035, 10.879141], [106.808592, 10.873033], [106.807823, 10.873792], [106.807344, 10.874126], [106.806798, 10.874392], [106.805585, 10.874979], [106.805208, 10.874995], [106.80434, 10.874835], [106.803635, 10.874801], [106.803116, 10.874649], [106.802288, 10.874287], [106.801312, 10.873631], [106.800881, 10.873727], [106.799966, 10.873022], [106.798872, 10.872376], [106.798607, 10.872298], [106.79829, 10.8723], [106.798107, 10.872349], [106.797628, 10.871882], [106.7976, 10.87184], [106.797197, 10.872039], [106.796955, 10.872302], [106.796689, 10.87278], [106.796503, 10.873326], [106.795168, 10.873658], [106.794009, 10.873576], [106.793144, 10.873081], [106.791933, 10.872385], [106.791108, 10.872219], [106.789692, 10.87216], [106.788516, 10.872149], [106.787917, 10.870057], [106.787842, 10.869272], [106.787771, 10.867959], [106.787737, 10.867348], [106.787296, 10.867351], [106.785871, 10.867395], [106.783677, 10.867498], [106.782824, 10.867633], [106.782079, 10.867755], [106.78149, 10.867878], [106.780304, 10.868276], [106.780275, 10.868643], [106.780203, 10.868841], [106.78019, 10.868893], [106.780132, 10.869112], [106.780115, 10.869365], [106.780116, 10.869527], [106.780282, 10.869815], [106.78034, 10.870247], [106.780397, 10.87059], [106.780546, 10.871094], [106.780732, 10.871616], [106.78101, 10.872263], [106.781196, 10.872803], [106.781325, 10.873091], [106.781557, 10.873643], [106.78165, 10.873913], [106.78172, 10.874455], [106.781722, 10.874824], [106.781789, 10.875244], [106.781921, 10.875663], [106.781949, 10.876108], [106.78199, 10.876451], [106.782024, 10.876778], [106.782052, 10.877249], [106.781989, 10.87744], [106.781772, 10.877811], [106.781516, 10.878041], [106.781311, 10.878297], [106.781248, 10.878628], [106.781225, 10.87896], [106.781234, 10.879411], [106.781198, 10.879819], [106.781109, 10.880138], [106.780944, 10.880483], [106.780701, 10.880942], [106.7806, 10.881236], [106.780524, 10.881389], [106.78012, 10.881792], [106.779582, 10.882317], [106.779428, 10.882573], [106.779185, 10.882893], [106.778711, 10.883341], [106.778147, 10.883917], [106.777602, 10.88441], [106.777282, 10.884667], [106.776936, 10.885038], [106.776449, 10.885601], [106.776142, 10.88601], [106.775925, 10.886368], [106.775753, 10.886783], [106.775588, 10.887064], [106.775332, 10.887371], [106.775076, 10.887604], [106.774896, 10.887768], [106.774408, 10.888242], [106.773972, 10.888575], [106.773458, 10.888897], [106.773067, 10.889211], [106.772862, 10.889492], [106.772683, 10.889761], [106.772415, 10.890208], [106.772134, 10.890591], [106.771852, 10.89086], [106.771352, 10.891334], [106.771154, 10.891673], [106.771027, 10.891992], [106.770926, 10.892311], [106.770606, 10.89272], [106.770221, 10.893066], [106.769932, 10.893227], [106.769726, 10.893317], [106.76943, 10.893408], [106.768865, 10.893163], [106.768796, 10.893231], [106.76856, 10.893673], [106.768409, 10.894174], [106.768004, 10.894021], [106.768, 10.893344], [106.767218, 10.893304], [106.767252, 10.892901], [106.767275, 10.892472], [106.767347, 10.892232], [106.767721, 10.891545], [106.76677, 10.891438], [106.766649, 10.891085], [106.766586, 10.890467], [106.766553, 10.889879], [106.766236, 10.889135], [106.765877, 10.888724], [106.765308, 10.887961], [106.764947, 10.887197], [106.764822, 10.886196], [106.76431, 10.885606], [106.763768, 10.885095], [106.763438, 10.884723], [106.763035, 10.884318], [106.762124, 10.88357], [106.760833, 10.882537], [106.760167, 10.882126], [106.760282, 10.881774], [106.76049, 10.881299], [106.760732, 10.880866], [106.761252, 10.880137], [106.761291, 10.880077], [106.76134, 10.88], [106.761814, 10.878984], [106.761964, 10.878722], [106.761281, 10.878479], [106.761384, 10.878253], [106.761517, 10.877893], [106.761424, 10.877157], [106.761477, 10.876097], [106.761745, 10.875491], [106.761752, 10.875369], [106.761363, 10.874906], [106.761253, 10.874595], [106.761722, 10.874436], [106.761719, 10.874346], [106.76156, 10.874005], [106.761406, 10.873767], [106.760862, 10.873182], [106.76036, 10.872392], [106.762147, 10.871166], [106.76223, 10.871076], [106.762456, 10.870643], [106.763044, 10.870034], [106.763254, 10.870016], [106.763289, 10.869673], [106.763275, 10.869361], [106.763191, 10.869061], [106.762436, 10.867848], [106.762242, 10.867426], [106.762212, 10.867279], [106.761229, 10.867289], [106.761016, 10.867269], [106.76069, 10.867162], [106.760029, 10.866963], [106.759577, 10.866898], [106.759315, 10.866905], [106.759054, 10.866969], [106.758266, 10.86716], [106.758025, 10.867149], [106.757708, 10.867072], [106.757472, 10.867143], [106.756373, 10.866539], [106.755938, 10.866373], [106.755695, 10.866349], [106.755383, 10.866385], [106.755083, 10.866442], [106.754803, 10.866397], [106.754598, 10.866285], [106.754396, 10.866166], [106.753879, 10.86583], [106.753573, 10.865689], [106.753629, 10.865502], [106.751759, 10.863808], [106.751687, 10.863848], [106.751521, 10.863941], [106.751197, 10.864466], [106.75054, 10.864037], [106.750269, 10.864403], [106.750034, 10.864338], [106.749928, 10.864442], [106.74936, 10.865227], [106.748316, 10.866244], [106.748088, 10.866731], [106.747955, 10.867446], [106.747877, 10.86836], [106.747865, 10.868501], [106.747864, 10.868703], [106.74791, 10.869245], [106.747829, 10.869333], [106.747463, 10.869396], [106.747319, 10.869516], [106.746675, 10.870543], [106.746281, 10.871212], [106.745982, 10.871753], [106.747032, 10.872088], [106.746449, 10.873902], [106.750542, 10.875258], [106.75137, 10.875521], [106.751036, 10.876121], [106.750345, 10.877361], [106.749986, 10.877849], [106.749459, 10.877553], [106.74881, 10.878345], [106.747374, 10.877497], [106.747135, 10.877499], [106.746727, 10.877805], [106.74513, 10.879403], [106.744655, 10.880116], [106.745344, 10.880957], [106.744779, 10.881752], [106.743562, 10.880886], [106.74252, 10.879383], [106.742174, 10.879689], [106.741728, 10.88033], [106.740713, 10.880819], [106.740617, 10.880822], [106.740259, 10.880611], [106.739437, 10.879758], [106.738509, 10.878711], [106.735497, 10.880272], [106.735178, 10.880262], [106.734789, 10.880378], [106.734168, 10.880519], [106.735024, 10.881779], [106.736859, 10.884767], [106.736838, 10.88477], [106.73557, 10.884916], [106.73185, 10.885721], [106.731834, 10.886314], [106.731794, 10.88681], [106.731874, 10.887138], [106.732501, 10.889298], [106.733044, 10.890787], [106.732949, 10.891525], [106.731756, 10.891051], [106.729179, 10.889874], [106.727957, 10.891329], [106.727125, 10.890509], [106.727029, 10.890498], [106.726786, 10.89064], [106.72615, 10.890932], [106.725459, 10.891292], [106.724499, 10.891876], [106.72127, 10.893875], [106.717673, 10.896418], [106.716352, 10.894168], [106.715944, 10.893474], [106.715347, 10.892619], [106.712986, 10.889767], [106.713125, 10.889262], [106.713236, 10.888911], [106.713504, 10.888671], [106.713744, 10.888502], [106.714226, 10.888345], [106.714466, 10.888232], [106.714509, 10.888189], [106.714508, 10.888161], [106.71438, 10.88805], [106.714167, 10.887911], [106.714024, 10.8878], [106.713995, 10.887604], [106.713994, 10.88745], [106.71412, 10.887225], [106.714299, 10.887129], [106.714574, 10.887236], [106.715144, 10.887625], [106.715613, 10.887875], [106.716196, 10.888026], [106.71675, 10.888121], [106.717104, 10.888119], [106.717317, 10.888076], [106.717444, 10.887935], [106.717499, 10.887626], [106.71744, 10.88722], [106.717424, 10.886968], [106.71728, 10.886523], [106.717265, 10.886479], [106.716863, 10.885612], [106.716733, 10.885178], [106.71666, 10.884828], [106.716671, 10.884338], [106.71685, 10.883356], [106.717002, 10.882584], [106.717708, 10.880915], [106.715739, 10.8801], [106.714168, 10.879449], [106.713281, 10.878957], [106.712455, 10.878004], [106.712874, 10.877434], [106.713635, 10.877839], [106.714016, 10.876911], [106.715304, 10.877572], [106.715591, 10.8775], [106.7161, 10.877332], [106.716357, 10.877301], [106.716795, 10.87728], [106.717376, 10.877224], [106.717676, 10.877193], [106.718029, 10.877125], [106.718394, 10.877106], [106.719054, 10.877072], [106.719455, 10.877005], [106.719982, 10.87686], [106.720879, 10.876624], [106.721206, 10.876527], [106.721209, 10.876509], [106.721296, 10.876421], [106.721397, 10.87606], [106.721417, 10.875986], [106.721538, 10.875672], [106.721571, 10.875133], [106.721848, 10.874435], [106.722197, 10.873912], [106.72267, 10.87337], [106.723178, 10.872932], [106.72344, 10.872652], [106.723474, 10.872426], [106.723496, 10.872229], [106.72345, 10.871969], [106.723014, 10.871942], [106.722326, 10.871859], [106.72171, 10.87181], [106.721446, 10.871811], [106.721042, 10.872022], [106.720199, 10.872358], [106.719795, 10.872447], [106.719056, 10.872538], [106.717965, 10.872648], [106.717138, 10.872757], [106.716522, 10.872848], [106.716065, 10.87292], [106.715783, 10.872922], [106.715448, 10.872836], [106.714958, 10.872547], [106.715079, 10.870896], [106.71531, 10.869475], [106.715375, 10.868934], [106.715354, 10.868852], [106.715271, 10.868529], [106.714114, 10.867339], [106.714031, 10.867241], [106.713935, 10.867132], [106.713846, 10.867017], [106.713791, 10.866935], [106.713748, 10.866881], [106.713173, 10.865865], [106.712407, 10.866364], [106.712319, 10.866214], [106.711023, 10.866593], [106.709078, 10.866841], [106.705423, 10.86703], [106.702488, 10.867485], [106.700818, 10.868103], [106.699456, 10.868955], [106.697961, 10.870349], [106.696874, 10.871403], [106.69661, 10.871701], [106.695245, 10.873372], [106.693381, 10.875984], [106.690429, 10.879649], [106.689752, 10.880667], [106.68935, 10.882156], [106.689218, 10.882968], [106.689189, 10.883813], [106.689263, 10.884894], [106.689372, 10.885907], [106.689649, 10.886581], [106.690407, 10.887793], [106.691566, 10.889325], [106.691681, 10.889476], [106.691922, 10.889948], [106.693544, 10.892777], [106.694167, 10.894125], [106.694449, 10.895712], [106.694489, 10.896658], [106.694425, 10.897503], [106.694247, 10.898561], [106.693896, 10.900649], [106.693396, 10.902713], [106.692958, 10.90395], [106.692858, 10.904236], [106.691747, 10.907148], [106.690164, 10.911178], [106.688476, 10.914803], [106.687294, 10.91731], [106.686009, 10.919649], [106.68489, 10.921244], [106.683836, 10.922162], [106.682747, 10.922911], [106.681521, 10.923594], [106.680771, 10.923902], [106.680327, 10.923904], [106.679507, 10.923875], [106.678412, 10.923678], [106.676495, 10.923081], [106.671463, 10.921385], [106.669821, 10.921022], [106.668967, 10.921027], [106.66668, 10.921512], [106.663201, 10.92268], [106.658943, 10.924934], [106.657444, 10.925787], [106.655301, 10.927458], [106.653441, 10.929095], [106.652515, 10.930274], [106.651533, 10.931868], [106.650822, 10.933122], [106.650385, 10.934476], [106.650156, 10.9362], [106.650197, 10.937417], [106.650373, 10.938463], [106.650792, 10.939982], [106.65159, 10.942174], [106.651764, 10.942849], [106.652369, 10.947205], [106.652484, 10.949434], [106.652424, 10.950955], [106.652205, 10.952515], [106.652063, 10.953525], [106.651762, 10.954743], [106.650486, 10.958704], [106.649612, 10.961378], [106.648912, 10.964491], [106.648819, 10.966215], [106.648823, 10.96706], [106.649175, 10.969679], [106.649782, 10.971537], [106.650062, 10.972617], [106.650072, 10.972755], [106.650115, 10.973311], [106.65015, 10.974442], [106.64983, 10.975975], [106.649162, 10.978885], [106.648554, 10.980037], [106.647976, 10.980615], [106.647465, 10.980955], [106.646681, 10.98123], [106.645929, 10.981302], [106.644253, 10.98104], [106.643055, 10.980675], [106.641513, 10.979906], [106.640566, 10.979318], [106.638565, 10.977981], [106.637406, 10.977437], [106.636027, 10.977438], [106.633711, 10.977711], [106.631229, 10.978311], [106.630487, 10.978505], [106.628032, 10.979192], [106.627873, 10.979236], [106.626953, 10.979681], [106.626102, 10.980293], [106.625115, 10.981177], [106.623928, 10.982704], [106.622263, 10.984572], [106.619369, 10.986513], [106.617768, 10.987603], [106.616783, 10.988622], [106.616174, 10.989802], [106.615975, 10.990817], [106.615909, 10.991256], [106.61598, 10.991796], [106.616322, 10.992929], [106.61671, 10.993706], [106.616843, 10.993973], [106.617499, 10.995151], [106.618512, 10.997006], [106.619941, 10.999551], [106.620487, 11.000425], [106.620942, 11.001586], [106.620983, 11.001859], [106.621174, 11.003127], [106.621259, 11.00501], [106.621115, 11.005925], [106.620266, 11.00774], [106.619619, 11.008916], [106.619025, 11.00964], [106.618357, 11.010401], [106.617781, 11.010865], [106.61713, 11.01122], [106.616254, 11.011594], [106.616235, 11.011594], [106.615564, 11.011662], [106.614911, 11.011721], [106.614313, 11.011724], [106.611456, 11.011656], [106.610373, 11.011662], [106.608787, 11.011837], [106.606997, 11.012354], [106.604277, 11.013348], [106.602506, 11.013809], [106.601482, 11.014058], [106.601182, 11.01413], [106.600529, 11.0143], [106.599847, 11.014532], [106.598839, 11.015109], [106.598043, 11.015816], [106.597855, 11.015985], [106.597283, 11.017298], [106.596767, 11.018631], [106.595551, 11.022555], [106.595132, 11.024385], [106.594988, 11.025485], [106.595152, 11.028172], [106.595382, 11.029223], [106.595724, 11.030274], [106.596195, 11.031075], [106.598664, 11.033813], [106.600638, 11.036205], [106.602357, 11.03795], [106.602996, 11.038796], [106.60335, 11.039412], [106.603392, 11.03957], [106.603081, 11.040633], [106.602729, 11.041263], [106.602136, 11.042023], [106.601172, 11.043386], [106.600319, 11.044462], [106.59939, 11.045298], [106.598271, 11.04559], [106.59717, 11.045651], [106.595413, 11.045402], [106.594646, 11.045074], [106.593821, 11.044422], [106.592938, 11.04343], [106.592108, 11.041947], [106.591725, 11.04025], [106.591624, 11.038727], [106.591169, 11.03751], [106.590793, 11.036921], [106.590212, 11.036573], [106.589651, 11.03641], [106.58894, 11.036257], [106.588057, 11.036274], [106.586812, 11.036379], [106.586197, 11.03653], [106.585469, 11.036681], [106.584258, 11.037187], [106.583644, 11.037448], [106.583142, 11.037839], [106.582881, 11.038089], [106.582765, 11.038267], [106.582096, 11.039286], [106.581578, 11.040123], [106.581338, 11.040605], [106.581245, 11.041101], [106.580956, 11.042614], [106.58042, 11.045721], [106.579979, 11.046998], [106.579462, 11.048035], [106.578849, 11.048768], [106.578714, 11.048881], [106.577697, 11.049734], [106.575355, 11.05188], [106.575003, 11.052343], [106.574781, 11.052714], [106.574373, 11.053233], [106.573975, 11.053734], [106.573213, 11.054384], [106.572662, 11.054609], [106.57227, 11.054666], [106.57199, 11.054631], [106.571747, 11.05454], [106.571334, 11.0542], [106.570996, 11.053814], [106.569711, 11.05205], [106.56902, 11.050897], [106.568675, 11.049878], [106.568622, 11.049014], [106.568568, 11.047548], [106.568515, 11.046946], [106.56809, 11.045926], [106.56748, 11.045455], [106.566737, 11.045036], [106.56531, 11.045061], [106.563536, 11.04507], [106.562416, 11.045196], [106.559673, 11.045524], [106.5584, 11.045664], [106.55817, 11.045689], [106.55495, 11.045761], [106.552037, 11.045767], [106.551306, 11.045849], [106.55101, 11.045883], [106.55032, 11.046034], [106.549966, 11.046156], [106.549575, 11.046435], [106.549502, 11.046499], [106.548876, 11.04704], [106.548348, 11.047947], [106.548059, 11.048787], [106.547209, 11.051], [106.546239, 11.052104], [106.54445, 11.053369], [106.542315, 11.054248], [106.540245, 11.054905], [106.536332, 11.056578], [106.534806, 11.057454], [106.532903, 11.0591], [106.532179, 11.060175], [106.530928, 11.062424], [106.529968, 11.065036], [106.529543, 11.065647], [106.529117, 11.066276], [106.528814, 11.066689], [106.528375, 11.067055], [106.527593, 11.067736], [106.52661, 11.068327], [106.525885, 11.068829], [106.52544, 11.069311], [106.525162, 11.069727], [106.524572, 11.071022], [106.524149, 11.07226], [106.523819, 11.073377], [106.523747, 11.073728], [106.523752, 11.073767], [106.523824, 11.0743], [106.524091, 11.07535], [106.525317, 11.078078], [106.526816, 11.0807], [106.527907, 11.082077], [106.530316, 11.08421], [106.532491, 11.086357], [106.533275, 11.087597], [106.533877, 11.088517], [106.53403, 11.089217], [106.534033, 11.08977], [106.533813, 11.090546], [106.533369, 11.091139], [106.532961, 11.091583], [106.53272, 11.091805], [106.532322, 11.092002], [106.531327, 11.092243], [106.530408, 11.092243], [106.529076, 11.092228], [106.527254, 11.091564], [106.526182, 11.090794], [106.52508, 11.089858], [106.524222, 11.089526], [106.523518, 11.089541], [106.522385, 11.090055], [106.521634, 11.09087], [106.521099, 11.091686], [106.520563, 11.092591], [106.5201, 11.093339], [106.519323, 11.094633], [106.51899, 11.095077], [106.518286, 11.096112], [106.517322, 11.097407], [106.516768, 11.09836], [106.516362, 11.099285], [106.51618, 11.100171], [106.516183, 11.100688], [106.51626, 11.101241], [106.516384, 11.101552], [106.516399, 11.101564], [106.517011, 11.102031], [106.517702, 11.102309], [106.518469, 11.102577], [106.519701, 11.102792], [106.52071, 11.102934], [106.520956, 11.102981], [106.522392, 11.103228], [106.524111, 11.103616], [106.525341, 11.104489], [106.526325, 11.105856], [106.526693, 11.106976], [106.527006, 11.109669], [106.527367, 11.112193], [106.527597, 11.1133], [106.527777, 11.114153], [106.52779, 11.114966], [106.527461, 11.116259], [106.527167, 11.117036], [106.52702, 11.117517], [106.526875, 11.118329], [106.526878, 11.118994], [106.526956, 11.119603], [106.526959, 11.12023], [106.52685, 11.120673], [106.526665, 11.121043], [106.526256, 11.121341], [106.525846, 11.121491], [106.525285, 11.121346], [106.524389, 11.12124], [106.523382, 11.121318], [106.522225, 11.121509], [106.521219, 11.121809], [106.519322, 11.122781], [106.517424, 11.124044], [106.5159, 11.125416], [106.514158, 11.127748], [106.513841, 11.128621], [106.513218, 11.130433], [106.512655, 11.132244], [106.512033, 11.13391], [106.511306, 11.13555], [106.51066, 11.136505], [106.510231, 11.137074], [106.50933, 11.138211], [106.508299, 11.139737], [106.508041, 11.140428], [106.507985, 11.141027], [106.507801, 11.141608], [106.507691, 11.141826], [106.507488, 11.142081], [106.507341, 11.142208], [106.507083, 11.142244], [106.506677, 11.142244], [106.506309, 11.142226], [106.505977, 11.142153], [106.505498, 11.141954], [106.50513, 11.14179], [106.504706, 11.14159], [106.503287, 11.140809], [106.502569, 11.140519], [106.50209, 11.140319], [106.501684, 11.140228], [106.50115, 11.140246], [106.500484, 11.140347], [106.499022, 11.140688], [106.497937, 11.141248], [106.495353, 11.142624], [106.493777, 11.143133], [106.49153, 11.143745], [106.490238, 11.143948], [106.489049, 11.143948], [106.487964, 11.143846], [106.487634, 11.143776], [106.48737, 11.143719], [106.486207, 11.143413], [106.4852, 11.143082], [106.483081, 11.141987], [106.481712, 11.141604], [106.480653, 11.141452], [106.479645, 11.141452], [106.476054, 11.141859], [106.473703, 11.142164], [106.472334, 11.142393], [106.471817, 11.142546], [106.471274, 11.142903], [106.470551, 11.143591], [106.469052, 11.145373], [106.46851, 11.145832], [106.467089, 11.146723], [106.46683, 11.147182], [106.466804, 11.147487], [106.466985, 11.147997], [106.467347, 11.14843], [106.468768, 11.149627], [106.469569, 11.150417], [106.470163, 11.151258], [106.470679, 11.152098], [106.470989, 11.15271], [106.471067, 11.153143], [106.471093, 11.153652], [106.471015, 11.15406], [106.470808, 11.154366], [106.470576, 11.154518], [106.470111, 11.154748], [106.469129, 11.155028], [106.467294, 11.155435], [106.466623, 11.155664], [106.466157, 11.155919], [106.465744, 11.156275], [106.465305, 11.156861], [106.464581, 11.158033], [106.46378, 11.159154], [106.463392, 11.159459], [106.463031, 11.159536], [106.462643, 11.15951], [106.462359, 11.159434], [106.461946, 11.159001], [106.461274, 11.158109], [106.46068, 11.157625], [106.460189, 11.157446], [106.45975, 11.15737], [106.459104, 11.157472], [106.458277, 11.157803], [106.457683, 11.158363], [106.456907, 11.159127], [106.456365, 11.159382], [106.455874, 11.159433], [106.455176, 11.159382], [106.454065, 11.159025], [106.453006, 11.158464], [106.452283, 11.157776], [106.451818, 11.157012], [106.45143, 11.156121], [106.451198, 11.155025], [106.451201, 11.154738], [106.451224, 11.152198], [106.451328, 11.151408], [106.451664, 11.150822], [106.452129, 11.150542], [106.452542, 11.15044], [106.45293, 11.150517], [106.453317, 11.150695], [106.45386, 11.151103], [106.455281, 11.152224], [106.455875, 11.152504], [106.456314, 11.15253], [106.456702, 11.152428], [106.457141, 11.152224], [106.457451, 11.151893], [106.457658, 11.151486], [106.457787, 11.150849], [106.457839, 11.150186], [106.457787, 11.149346], [106.457736, 11.148072], [106.457736, 11.145627], [106.45753, 11.144684], [106.456961, 11.142799], [106.45629, 11.141296], [106.455334, 11.139819], [106.454353, 11.138596], [106.453242, 11.137475], [106.451227, 11.135691], [106.450297, 11.135131], [106.449445, 11.134876], [106.448385, 11.13485], [106.447362, 11.134871], [106.447325, 11.134457], [106.447137, 11.132354], [106.446908, 11.130165], [106.447638, 11.129081], [106.447484, 11.129053], [106.447093, 11.128848], [106.445544, 11.128035], [106.445076, 11.12742], [106.444239, 11.126171], [106.444034, 11.125748], [106.444014, 11.125225], [106.444116, 11.124459], [106.444118, 11.123602], [106.443856, 11.122306], [106.443418, 11.120794], [106.442367, 11.117512], [106.442076, 11.115986], [106.442076, 11.115223], [106.442047, 11.114704], [106.442003, 11.114387], [106.441828, 11.1142], [106.441565, 11.114042], [106.440543, 11.113466], [106.439492, 11.112559], [106.438368, 11.111244], [106.43772, 11.110425], [106.437355, 11.109704], [106.43699, 11.108574], [106.436926, 11.108397], [106.437332, 11.107978], [106.436034, 11.10467], [106.433975, 11.099685], [106.433473, 11.099784], [106.432998, 11.099808], [106.432305, 11.098535], [106.430957, 11.098551], [106.430715, 11.093276], [106.430648, 11.091819], [106.430101, 11.091811], [106.426622, 11.091762], [106.42691, 11.085827], [106.426943, 11.081679], [106.426944, 11.08088], [106.426814, 11.080402], [106.426491, 11.080114], [106.42575, 11.079133], [106.425525, 11.078447], [106.425587, 11.077297], [106.42573, 11.076086], [106.425996, 11.074976], [106.42657, 11.072777], [106.426611, 11.071909], [106.426355, 11.070585], [106.426262, 11.069569], [106.425814, 11.068593], [106.425717, 11.067444], [106.425944, 11.06671], [106.426041, 11.066231], [106.426041, 11.065848], [106.425847, 11.065561], [106.425329, 11.065369], [106.424423, 11.065369], [106.423873, 11.065337], [106.42342, 11.065145], [106.422773, 11.064443], [106.422191, 11.063453], [106.421544, 11.061857], [106.421577, 11.061219], [106.421829, 11.060845], [106.42203, 11.060549], [106.422127, 11.059464], [106.42203, 11.058921], [106.422095, 11.058155], [106.422451, 11.057166], [106.422549, 11.0564], [106.422516, 11.055762], [106.422419, 11.055219], [106.421999, 11.05407], [106.421783, 11.053268], [106.42174, 11.053112], [106.421741, 11.052442], [106.422097, 11.051389], [106.422518, 11.050655], [106.423942, 11.048836], [106.424654, 11.048294], [106.424784, 11.047943], [106.424492, 11.047719], [106.423457, 11.047559], [106.423004, 11.0474], [106.422778, 11.047017], [106.422713, 11.04574], [106.422488, 11.042421], [106.422552, 11.042006], [106.422941, 11.041495], [106.423006, 11.04108], [106.422844, 11.040665], [106.422521, 11.039229], [106.421615, 11.036229], [106.42113, 11.035271], [106.419351, 11.034313], [106.417345, 11.033898], [106.415177, 11.033642], [106.413171, 11.032492], [106.413179, 11.031991], [106.412524, 11.031535], [106.411942, 11.03029], [106.411554, 11.029077], [106.411199, 11.027577], [106.410628, 11.025747], [106.410207, 11.024842], [106.409992, 11.024257], [106.409733, 11.0238], [106.409388, 11.023395], [106.408951, 11.022983], [106.408633, 11.022512], [106.408553, 11.022093], [106.408527, 11.021596], [106.408607, 11.021098], [106.408872, 11.020234], [106.408926, 11.01958], [106.408926, 11.018245], [106.408847, 11.016491], [106.408741, 11.014632], [106.413845, 11.00856], [106.4139, 11.008488], [106.413062, 11.008707], [106.412195, 11.008533], [106.410015, 11.007606], [106.408557, 11.006796], [106.408054, 11.006516], [106.406428, 11.006348], [106.406513, 11.005207], [106.403446, 11.00407], [106.400461, 11.003284], [106.395552, 11.001057], [106.391022, 10.999238], [106.38946, 10.998858], [106.388287, 10.998573], [106.38675, 10.998508], [106.384836, 10.998517], [106.382583, 10.998054], [106.380802, 10.997679], [106.380067, 10.997995], [106.37907, 10.998641], [106.378481, 10.998996], [106.377119, 10.999323], [106.374379, 10.999223], [106.372882, 10.999018], [106.371581, 10.998824], [106.367836, 10.998039], [106.365602, 10.997312], [106.364092, 10.99672], [106.362423, 10.996534], [106.361053, 10.99559], [106.360424, 10.995118], [106.360385, 10.99468], [106.359828, 10.993952], [106.358199, 10.99279], [106.358197, 10.992497], [106.356771, 10.991729]]]}}]}